FLOCK 1C-3              
1 40041U 14033AH  17176.17126080  .00000405  00000-0  49533-4 0  9994
2 40041  97.9275  88.6638 0011617 267.9779  92.0099 14.88644892163678
POLYITAN-1              
1 40042U 14033AJ  17176.25513709  .00000278  00000-0  36314-4 0  9993
2 40042  97.9199  87.3241 0013327 267.2586  92.7105 14.88058162163112
TIGRISAT                
1 40043U 14033AK  17176.18590836  .00000130  00000-0  27054-4 0  9990
2 40043  97.8565  60.5110 0058736 268.6416  90.8063 14.73980944162013
LEMUR-1                 
1 40044U 14033AL  17176.23593148  .00000131  00000-0  27385-4 0  9994
2 40044  97.8563  60.3026 0057898 269.6198  89.8376 14.73804745161605
AEROCUBE 6A             
1 40045U 14033AM  17176.20994759  .00000312  00000-0  53077-4 0  9993
2 40045  97.8681  61.7035 0056715 264.2325  95.2416 14.74825553161665
AEROCUBE 6B             
1 40046U 14033AN  17176.21000786  .00000292  00000-0  50172-4 0  9993
2 40046  97.8675  61.6370 0055949 263.8241  95.6593 14.74825798161661
UKUBE-1                 
1 40074U 14037F   17176.25185906  .00000306  00000-0  44366-4 0  9994
2 40074  98.3479 291.5305 0005392  39.5216 320.6396 14.83504514160378
BRITE-PL 2              
1 40119U 14049B   17176.23776691  .00000129  00000-0  21953-4 0  9992
2 40119  97.9363 262.0970 0018858  65.4171 294.9005 14.84142117154354
FIREBIRD 4              
1 40378U 15003C   17176.05774087  .00001260  00000-0  57747-4 0  9994
2 40378  99.1229   1.6220 0135966 336.6760  22.8335 15.15405218132201
GRIFEX                  
1 40379U 15003D   17176.25348825  .00000923  00000-0  46030-4 0  9992
2 40379  99.1248 359.6025 0141898 343.6857  15.9824 15.12961312132090
EXOCUBE                 
1 40380U 15003E   17176.04838326  .00000722  00000-0  38286-4 0  9992
2 40380  99.1287 358.0883 0145555 348.3746  11.4130 15.11484666131971
DEORBITSAIL             
1 40719U 15032E   17176.25637536  .00000395  00000-0  64655-4 0  9998
2 40719  97.9797  69.9132 0017797 114.5437 245.7630 14.76063121105517
TIANWANG 1C (TW-1C)     
1 40926U 15051B   17176.10492083  .00005904  00000-0  13653-3 0  9991
2 40926  97.2298 215.6049 0013061 133.8291 281.8266 15.42783806 98144
TIANWANG 1B (TW-1B)     
1 40927U 15051C   17176.24761067  .00005741  00000-0  13781-3 0  9999
2 40927  97.2385 215.7597 0012699 142.9759 283.2440 15.41678347 98116
TIANWANG 1A (TW-1A)     
1 40928U 15051D   17176.29057667  .00002826  00000-0  82306-4 0  9990
2 40928  97.2269 211.9607 0013284 160.9901 261.4619 15.36146422 97942
LEMUR-2-JOEL            
1 40932U 15052C   17176.25348959  .00000823  00000-0  24263-4 0  9992
2 40932   6.0084 170.2601 0014172  11.6018 348.4635 14.77475339 94205
LEMUR-2-CHRIS           
1 40933U 15052D   17176.25500735  .00000592  00000-0 -73496-5 0  9992
2 40933   6.0067 169.1293 0014690  14.0503 346.0318 14.77617429 94213
LEMUR-2-JEROEN          
1 40934U 15052E   17176.16276828  .00001116  00000-0  65944-4 0  9996
2 40934   6.0014 175.0368 0011497 355.2718   4.7321 14.76950918 94129
LEMUR-2-PETER           
1 40935U 15052F   17176.18309235  .00000945  00000-0  42634-4 0  9998
2 40935   6.0016 176.3270 0011199 356.2828   3.7317 14.76731556 94129
EXACTVIEW 9             
1 40936U 15052G   17174.70068188 -.00006998  00000-0 -10764-2 0  9997
2 40936   6.0007 189.1609 0011145 323.4714  36.4789 14.76243800 93898
ATHENOXAT 1             
1 41168U 15077C   17176.25080510  .00001937  00000-0  72072-4 0  9995
2 41168  14.9858 110.5296 0012468 127.4777 305.8904 15.11596073 84264
GALASSIA                
1 41170U 15077E   17176.22112288  .00001689  00000-0  56839-4 0  9990
2 41170  14.9886 107.0599 0013534 145.7426 214.3769 15.12098489 84299
VELOX 2                 
1 41171U 15077F   17176.20853986  .00001418  00000-0  45441-4 0  9993
2 41171  14.9909 119.3425 0009164 102.9219 257.2125 15.09876191 84189
AGGIESAT 4              
1 41313U 98067HP  17175.82885130  .00021210  00000-0  14819-3 0  9990
2 41313  51.6360 323.4822 0003202 175.8843 184.2183 15.74237313 80137
HORYU-IV                
1 41340U 16012D   17176.03669042  .00000494  00000-0  31345-4 0  9991
2 41340  31.0060  58.9768 0014209 153.1099 207.0275 15.00604047 74192
OUFTI-1                 
1 41458U 16025C   17176.23233575  .00001121  00000-0  64775-4 0  9996
2 41458  98.1859 214.2743 0172531 262.6525  95.5061 15.03198574 63787
E-ST@R-II               
1 41459U 16025D   17176.05444722  .00001774  00000-0  99732-4 0  9990
2 41459  98.1824 214.0272 0173227 263.0608  95.0884 15.03031386 63757
AAUSAT 4                
1 41460U 16025E   17176.04724568  .00002065  00000-0  11502-3 0  9992
2 41460  98.1778 214.1312 0166611 261.9034  96.3267 15.03927685 63779
DIWATA-1                
1 41463U 98067HT  17176.09068372  .00006764  00000-0  80600-4 0  9996
2 41463  51.6424 345.4270 0001439 145.0913 315.5894 15.62409854 66031
NODES 2                 
1 41477U 98067HX  17176.03026665  .00067999  00000-0  30612-3 0  9998
2 41477  51.6279 322.4158 0000940 229.7750 130.3171 15.83424918 63319
NODES 1                 
1 41478U 98067HY  17175.88556156  .00065003  00000-0  30156-3 0  9991
2 41478  51.6317 323.7313 0000869 232.3585 127.7339 15.82803195 63285
FLOCK 2E'-1             
1 41479U 98067HZ  17175.98224505  .00019620  00000-0  16905-3 0  9993
2 41479  51.6356 336.5464 0000998 257.0323 103.0563 15.69290388 63088
FLOCK 2E'-3             
1 41480U 98067JA  17176.07109178  .00017892  00000-0  15522-3 0  9997
2 41480  51.6358 335.6602 0000454 355.1678   4.9315 15.69196017 63095
FLOCK 2E'-2             
1 41481U 98067JB  17175.89022897  .00016543  00000-0  13976-3 0  9992
2 41481  51.6339 335.1585 0001241 246.1398 113.9470 15.69911744 63076
FLOCK 2E'-4             
1 41482U 98067JC  17176.03954760  .00020926  00000-0  16050-3 0  9999
2 41482  51.6336 333.1374 0000078 200.1021 159.9974 15.72048285 63117
FLOCK 2E-1              
1 41483U 98067JD  17175.97030242  .00015522  00000-0  14088-3 0  9997
2 41483  51.6372 337.2770 0001698  73.0394 287.0789 15.68211656 62926
FLOCK 2E-2              
1 41484U 98067JE  17175.82335133  .00015486  00000-0  13217-3 0  9991
2 41484  51.6379 336.3128 0001471  91.1756 268.9410 15.69723772 62920
FLOCK 2E-3              
1 41486U 98067JG  17175.86011959  .00036734  00000-0  33351-3 0  9994
2 41486  51.6365 339.5337 0001685 115.7257 244.3913 15.67624336 62908
FLOCK 2E-4              
1 41487U 98067JH  17176.02652358  .00014515  00000-0  13127-3 0  9990
2 41487  51.6367 336.8690 0002739 116.7258 243.4019 15.68363074 62958
FLOCK 2E-6              
1 41563U 98067JM  17176.09153506  .00012427  00000-0  12019-3 0  9992
2 41563  51.6362 338.8025 0001025 243.5846 116.5045 15.66856774 61007
FLOCK 2E-5              
1 41564U 98067JN  17175.84752433  .00012828  00000-0  12440-3 0  9992
2 41564  51.6363 340.1811 0000857 250.7961 109.2943 15.66754028 60956
FLOCK 2E-7              
1 41565U 98067JP  17175.83426593  .00017660  00000-0  14905-3 0  9994
2 41565  51.6355 336.3069 0003392 148.3389 211.7813 15.69877307 60902
FLOCK 2E-8              
1 41566U 98067JQ  17176.20121907  .00339765  59014-4  69649-3 0  9999
2 41566  51.6256 312.9199 0006944 296.2130  63.8165 15.98773042 61236
FLOCK 2E'-5             
1 41567U 98067JR  17176.03654618  .00011867  00000-0  11942-3 0  9991
2 41567  51.6373 340.7086 0003992 163.6136 196.4990 15.65909056 60838
FLOCK 2E'-6             
1 41568U 98067JS  17175.94181438  .00015615  00000-0  14456-3 0  9994
2 41568  51.6359 338.5339 0003459 164.3896 195.7208 15.67713361 60881
FLOCK 2E'-8             
1 41569U 98067JT  17175.86632220  .00020033  00000-0  16654-3 0  9998
2 41569  51.6354 335.7734 0001338 118.0376 242.0757 15.70146295 60793
FLOCK 2E'-7             
1 41570U 98067JU  17175.54515548  .00023283  00000-0  17130-3 0  9998
2 41570  51.6358 334.3857 0001740  96.1463 263.9733 15.72960186 60803
FLOCK 2E-9              
1 41571U 98067JV  17175.92591966  .00055441  00000-0  43757-3 0  9994
2 41571  51.6356 334.6868 0002691 150.9302 209.1846 15.70842199 60790
FLOCK 2E-10             
1 41572U 98067JW  17175.84001819  .00016870  00000-0  14643-3 0  9994
2 41572  51.6360 337.1208 0003512 152.6908 207.4275 15.69231191 60751
FLOCK 2E-12             
1 41573U 98067JX  17175.83664283  .00017692  00000-0  14812-3 0  9995
2 41573  51.6353 336.3333 0002988 167.6466 192.4605 15.70071881 60766
FLOCK 2E-11             
1 41574U 98067JY  17175.83165902  .00018481  00000-0  15345-3 0  9999
2 41574  51.6341 335.5035 0003934 171.5813 188.5251 15.70234223 60771
FLOCK 2E'-9             
1 41575U 98067JZ  17176.01410123  .00022461  00000-0  17754-3 0  9998
2 41575  51.6337 333.6988 0003647 190.7468 169.3453 15.71274562 60809
FLOCK 2E'-10            
1 41576U 98067KA  17176.01730394  .00019041  00000-0  15836-3 0  9993
2 41576  51.6365 335.3144 0003633 187.5078 172.5866 15.70172111 60686
FLOCK 2E'-11            
1 41577U 98067KB  17175.86531380  .00019208  00000-0  16322-3 0  9996
2 41577  51.6367 336.5589 0003846 162.7907 197.3222 15.69642158 60476
FLOCK 2E'-12            
1 41578U 98067KC  17176.05069323  .00025388  00000-0  20280-3 0  9996
2 41578  51.6342 334.7246 0003778 156.4689 203.6482 15.70940516 60516
LEMUR-2-DRMUZZ          
1 41595U 16019B   17176.19036942  .03954447  12259-4  57526-3 0  9994
2 41595  51.6174 302.9038 0013415 312.5574  47.4316 16.33513291 58075
FLOCK 2P-6              
1 41606U 16040H   17176.18427637  .00001881  00000-0  84782-4 0  9999
2 41606  97.4590 238.8313 0012293  52.8009 307.4347 15.22224336 55921
FLOCK 2P-11             
1 41608U 16040K   17176.12409291  .00001646  00000-0  74625-4 0  9995
2 41608  97.4585 238.7419 0012353  53.2528 306.9840 15.22209142 55853
FLOCK 2P-2              
1 41609U 16040L   17176.14052601  .00002968  00000-0  13203-3 0  9999
2 41609  97.4586 238.7451 0012256  52.9069 307.3285 15.22216223 55833
